NORAD_CAT_ID,OBJECT_NAME,OBJECT_TYPE,EPOCH,MEAN_MOTION,ECCENTRICITY,INCLINATION,RA_OF_ASC_NODE,ARG_OF_PERICENTER,MEAN_ANOMALY,BSTAR,MEAN_MOTION_DOT,MEAN_MOTION_DDOT,TLE_LINE0,TLE_LINE1,TLE_LINE2,SEMIMAJOR_AXIS,PERIOD,APOGEE,PERIGEE,DECAYED
53434.0,STARLINK-4498,PAYLOAD,2023-11-20 06:35:49,15.08848829,0.0001771,53.217,276.6134,88.8759,271.2436,0.00011257,1.504e-05,0.0,0 STARLINK-4498,1 53434U 22097AY  23324.27488203  .00001504  00000-0  11257-3 0  9996,2 53434  53.2170 276.6134 0001771  88.8759 271.2436 15.08848829 71926,6917.853,95.437,540.944,538.493,0.0
53434.0,STARLINK-4498,PAYLOAD,2023-11-20 14:32:45,15.08844851,0.0001743,53.2174,275.1253,92.2833,267.8358,7.0927e-05,8.41e-06,0.0,0 STARLINK-4498,1 53434U 22097AY  23324.60608432  .00000841  00000-0  70927-4 0  9994,2 53434  53.2174 275.1253 0001743  92.2833 267.8358 15.08844851 71977,6917.866,95.437,540.936,538.525,0.0
53434.0,STARLINK-4498,PAYLOAD,2023-11-21 03:15:50,15.08849067,0.0001705,53.2176,272.748,92.1307,267.988,6.3832e-05,7.28e-06,0.0,0 STARLINK-4498,1 53434U 22097AY  23325.13599971  .00000728  00000-0  63832-4 0  9991,2 53434  53.2176 272.7480 0001705  92.1307 267.9880 15.08849067 71567,6917.853,95.437,540.897,538.538,0.0
53434.0,STARLINK-4498,PAYLOAD,2023-11-21 06:26:36,15.08855445,0.0001791,53.2177,272.1508,101.9214,258.1979,6.7898e-05,7.93e-06,0.0,0 STARLINK-4498,1 53434U 22097AY  23325.26847472  .00000793  00000-0  67898-4 0  9995,2 53434  53.2177 272.1508 0001791 101.9214 258.1979 15.08855445 72079,6917.833,95.437,540.937,538.459,0.0
53434.0,STARLINK-4498,PAYLOAD,2023-11-21 20:45:05,15.08838453,0.000205,53.2168,269.475,96.5749,263.5477,3.627e-05,2.89e-06,0.0,0 STARLINK-4498,1 53434U 22097AY  23325.86464839  .00000289  00000-0  36270-4 0  9993,2 53434  53.2168 269.4750 0002050  96.5749 263.5477 15.08838453 72161,6917.885,95.438,541.168,538.332,0.0
53434.0,STARLINK-4498,PAYLOAD,2023-11-22 03:06:37,15.08843184,0.0001739,53.2161,268.2861,96.4397,263.6793,7.0045e-05,8.27e-06,0.0,0 STARLINK-4498,1 53434U 22097AY  23326.12960462  .00000827  00000-0  70045-4 0  9992,2 53434  53.2161 268.2861 0001739  96.4397 263.6793 15.08843184 71714,6917.871,95.437,540.939,538.533,0.0
53434.0,STARLINK-4498,PAYLOAD,2023-11-23 06:08:10,15.08854168,0.0001687,53.2167,263.2292,96.2401,263.8783,0.00030787,4.617e-05,0.0,0 STARLINK-4498,1 53434U 22097AY  23327.25567966  .00004617  00000-0  30787-3 0  9998,2 53434  53.2167 263.2292 0001687  96.2401 263.8783 15.08854168 71882,6917.837,95.437,540.869,538.535,0.0
53434.0,STARLINK-4498,PAYLOAD,2023-11-23 20:26:40,15.08824451,0.0001494,53.2164,260.5563,102.2414,257.8746,-0.00023335,-3.998e-05,0.0,0 STARLINK-4498,1 53434U 22097AY  23327.85185265 -.00003998  00000-0 -23335-3 0  9996,2 53434  53.2164 260.5563 0001494 102.2414 257.8746 15.08824451 71972,6917.928,95.439,540.826,538.759,0.0
53434.0,STARLINK-4498,PAYLOAD,2023-11-24 02:48:12,15.08830857,0.0001795,53.2166,259.3682,107.4882,252.6306,-4.8952e-05,-1.067e-05,0.0,0 STARLINK-4498,1 53434U 22097AY  23328.11681264 -.00001067  00000-0 -48952-4 0  9994,2 53434  53.2166 259.3682 0001795 107.4882 252.6306 15.08830857 72010,6917.908,95.438,541.015,538.532,0.0
53434.0,STARLINK-4498,PAYLOAD,2023-11-25 02:38:59,15.08850233,0.0001693,53.2166,254.9087,108.0491,252.0686,0.0008044,0.00012541,0.0,0 STARLINK-4498,1 53434U 22097AY  23329.11041478  .00012541  00000-0  80440-3 0  9996,2 53434  53.2166 254.9087 0001693 108.0491 252.0686 15.08850233 72161,6917.849,95.437,540.885,538.543,0.0
53434.0,STARLINK-4498,PAYLOAD,2023-11-25 04:14:22,15.08858626,0.0001779,53.2168,254.6116,111.9964,248.1217,0.0010966,0.00017216,0.0,0 STARLINK-4498,1 53434U 22097AY  23329.17665340  .00017216  00000-0  10966-2 0  9991,2 53434  53.2168 254.6116 0001779 111.9964 248.1217 15.08858626 72661,6917.823,95.436,540.919,538.458,0.0
53434.0,STARLINK-4498,PAYLOAD,2023-11-26 04:05:08,15.08887318,0.0001812,53.2168,250.1504,78.2542,281.8653,0.0013794,0.00021762,0.0,0 STARLINK-4498,1 53434U 22097AY  23330.17023936  .00021762  00000-0  13794-2 0  9995,2 53434  53.2168 250.1504 0001812  78.2542 281.8653 15.08887318 72329,6917.736,95.435,540.854,538.347,0.0
53434.0,STARLINK-4498,PAYLOAD,2023-11-26 18:23:38,15.08814709,0.0001911,53.2175,247.4715,99.7463,260.3745,-0.0002907,-4.908e-05,0.0,0 STARLINK-4498,1 53434U 22097AY  23330.76641238 -.00004908  00000-0 -29070-3 0  9991,2 53434  53.2175 247.4715 0001911  99.7463 260.3745 15.08814709 72418,6917.958,95.439,541.145,538.501,0.0
53434.0,STARLINK-4498,PAYLOAD,2023-11-27 03:55:57,15.08821876,0.0001788,53.218,245.6861,104.7903,255.3288,-0.00033039,-5.54e-05,0.0,0 STARLINK-4498,1 53434U 22097AY  23331.16386039 -.00005540  00000-0 -33039-3 0  9994,2 53434  53.2180 245.6861 0001788 104.7903 255.3288 15.08821876 72963,6917.936,95.439,541.038,538.564,0.0
53434.0,STARLINK-4498,PAYLOAD,2023-11-28 00:35:58,15.08844752,0.0002504,53.2174,241.8253,58.0001,302.1234,0.00023014,3.377e-05,0.0,0 STARLINK-4498,1 53434U 22097AY  23332.02497832  .00003377  00000-0  23014-3 0  9990,2 53434  53.2174 241.8253 0002504  58.0001 302.1234 15.08844752 72607,6917.866,95.437,541.463,537.999,0.0
53434.0,STARLINK-4498,PAYLOAD,2023-11-28 22:51:21,15.08852174,0.0001444,53.2173,237.6587,78.4302,281.6852,0.00044601,6.82e-05,0.0,0 STARLINK-4498,1 53434U 22097AY  23332.95233670  .00006820  00000-0  44601-3 0  9991,2 53434  53.2173 237.6587 0001444  78.4302 281.6852 15.08852174 73235,6917.843,95.437,540.707,538.709,0.0
53434.0,STARLINK-4498,PAYLOAD,2023-11-29 03:37:30,15.08864696,0.000148,53.2158,236.7645,89.3327,270.7835,0.00054005,8.323e-05,0.0,0 STARLINK-4498,1 53434U 22097AY  23333.15105120  .00008323  00000-0  54005-3 0  9991,2 53434  53.2158 236.7645 0001480  89.3327 270.7835 15.08864696 72771,6917.805,95.436,540.694,538.646,0.0
53434.0,STARLINK-4498,PAYLOAD,2023-11-29 13:09:50,15.08840734,0.0001674,53.2166,234.9862,64.081,296.0354,-0.00011716,-2.152e-05,0.0,0 STARLINK-4498,1 53434U 22097AY  23333.54849550 -.00002152  00000-0 -11716-3 0  9994,2 53434  53.2166 234.9862 0001674  64.0810 296.0354 15.08840734 73329,6917.878,95.438,540.901,538.585,0.0
53434.0,STARLINK-4498,PAYLOAD,2023-12-01 03:19:05,15.08840679,0.0001609,53.216,227.8411,103.5258,256.5914,0.00011339,1.517e-05,0.0,0 STARLINK-4498,1 53434U 22097AY  23335.13825769  .00001517  00000-0  11339-3 0  9990,2 53434  53.2160 227.8411 0001609 103.5258 256.5914 15.08840679 73070,6917.878,95.438,540.856,538.63,0.0
53434.0,STARLINK-4498,PAYLOAD,2023-12-01 22:23:43,15.0883226,0.0001893,53.2154,224.2714,118.3795,241.7388,0.0001197,1.617e-05,0.0,0 STARLINK-4498,1 53434U 22097AY  23335.93314752  .00001617  00000-0  11970-3 0  9995,2 53434  53.2154 224.2714 0001893 118.3795 241.7388 15.08832260 73680,6917.904,95.438,541.079,538.459,0.0
53434.0,STARLINK-4498,PAYLOAD,2023-12-02 22:14:30,15.0884831,0.000167,53.2151,219.8163,97.5452,262.573,0.00034941,5.278e-05,0.0,0 STARLINK-4498,1 53434U 22097AY  23336.92674429  .00005278  00000-0  34941-3 0  9995,2 53434  53.2151 219.8163 0001670  97.5452 262.5730 15.08848310 73838,6917.855,95.437,540.875,538.565,0.0
53434.0,STARLINK-4498,PAYLOAD,2023-12-02 23:49:53,15.08850631,0.0001612,53.2147,219.5207,84.12,275.9976,0.0005018,7.709e-05,0.0,0 STARLINK-4498,1 53434U 22097AY  23336.99298531  .00007709  00000-0  50180-3 0  9992,2 53434  53.2147 219.5207 0001612  84.1200 275.9976 15.08850631 73354,6917.848,95.437,540.828,538.598,0.0
53434.0,STARLINK-4498,PAYLOAD,2023-12-03 20:29:54,15.08838794,0.0001617,53.215,215.6575,98.1387,261.9789,8.7873e-05,1.111e-05,0.0,0 STARLINK-4498,1 53434U 22097AY  23337.85410856  .00001111  00000-0  87873-4 0  9995,2 53434  53.2150 215.6575 0001617  98.1387 261.9789 15.08838794 73486,6917.884,95.438,540.868,538.63,0.0
53434.0,STARLINK-4498,PAYLOAD,2023-12-03 23:40:41,15.08835872,0.0001322,53.2144,215.0654,87.932,272.1823,-9.6486e-06,-4.41e-06,0.0,0 STARLINK-4498,1 53434U 22097AY  23337.98658941 -.00000441  00000-0 -96486-5 0  9996,2 53434  53.2144 215.0654 0001322  87.9320 272.1823 15.08835872 73990,6917.893,95.438,540.673,538.843,0.0
53434.0,STARLINK-4498,PAYLOAD,2023-12-04 15:34:32,15.08843661,0.0001253,53.2149,212.0866,86.0329,274.0806,0.00033136,4.99e-05,0.0,0 STARLINK-4498,1 53434U 22097AY  23338.64898905  .00004990  00000-0  33136-3 0  9998,2 53434  53.2149 212.0866 0001253  86.0329 274.0806 15.08843661 74098,6917.869,95.437,540.601,538.867,0.0
53434.0,STARLINK-4498,PAYLOAD,2023-12-06 00:57:37,15.08853408,0.00011,53.2163,205.8411,96.8358,263.276,0.00032903,4.954e-05,0.0,0 STARLINK-4498,1 53434U 22097AY  23340.04002252  .00004954  00000-0  32903-3 0  9998,2 53434  53.2163 205.8411 0001100  96.8358 263.2760 15.08853408 73810,6917.839,95.437,540.465,538.943,0.0
53434.0,STARLINK-4498,PAYLOAD,2023-12-07 15:06:53,15.08838629,0.0001307,53.2151,198.7053,78.4235,281.6903,1.6371e-05,-2.7e-07,0.0,0 STARLINK-4498,1 53434U 22097AY  23341.62978695 -.00000027  00000-0  16371-4 0  9996,2 53434  53.2151 198.7053 0001307  78.4235 281.6903 15.08838629 74540,6917.885,95.438,540.654,538.845,0.0
53434.0,STARLINK-4498,PAYLOAD,2023-12-08 14:57:40,15.08839934,0.0001353,53.2154,194.2426,82.8159,277.2987,2.6814e-05,1.39e-06,0.0,0 STARLINK-4498,1 53434U 22097AY  23342.62338648  .00000139  00000-0  26814-4 0  9991,2 53434  53.2154 194.2426 0001353  82.8159 277.2987 15.08839934 74692,6917.881,95.438,540.682,538.81,0.0
53434.0,STARLINK-4498,PAYLOAD,2023-12-09 16:23:51,15.08837444,0.0001496,53.2152,189.4841,97.464,262.6522,7.4149e-05,8.92e-06,0.0,0 STARLINK-4498,1 53434U 22097AY  23343.68323000  .00000892  00000-0  74149-4 0  9994,2 53434  53.2152 189.4841 0001496  97.4640 262.6522 15.08837444 74363,6917.888,95.438,540.788,538.718,0.0
53434.0,STARLINK-4498,PAYLOAD,2023-12-10 17:50:01,15.08840981,0.0001395,53.2159,184.7252,98.8307,261.2843,6.4203e-05,7.34e-06,0.0,0 STARLINK-4498,1 53434U 22097AY  23344.74306826  .00000734  00000-0  64203-4 0  9994,2 53434  53.2159 184.7252 0001395  98.8307 261.2843 15.08840981 74526,6917.877,95.437,540.707,538.777,0.0
